GLOBALSTAR M068 [-]     
1 32266U 07048D   24057.73945307 -.00000070  00000+0  18781-3 0  9999
2 32266  51.9902 314.5780 0001034 123.9611 270.7284 12.62780544757655
GLOBALSTAR M079 [+]     
1 37188U 10054A   24057.57784882 -.00000076  00000+0  15489-3 0  9997
2 37188  52.0029 150.6617 0000556  99.6621   4.4858 12.62266846616265
GLOBALSTAR M074 [+]     
1 37189U 10054B   24057.44056817 -.00000071  00000+0  18378-3 0  9999
2 37189  52.0007 150.4765 0000773 115.5861 324.0112 12.62265602616857
GLOBALSTAR M076 [+]     
1 37190U 10054C   24057.72351101 -.00000076  00000+0  15383-3 0  9994
2 37190  52.0020 149.7445 0000958  81.9188  83.1140 12.62274889616966
GLOBALSTAR M077 [+]     
1 37191U 10054D   24057.45938569 -.00000073  00000+0  16935-3 0  9995
2 37191  52.0066 107.2674 0000608 117.9932 346.2601 12.62269998616947
GLOBALSTAR M075 [+]     
1 37192U 10054E   24057.55962494 -.00000103  00000+0  41230-5 0  9993
2 37192  51.9933 192.7648 0000722  99.1749 340.8282 12.62270959615812
GLOBALSTAR M073 [+]     
1 37193U 10054F   24057.32154707 -.00000071  00000+0  18390-3 0  9992
2 37193  52.0054 106.9426 0000522 106.5338 332.9762 12.62262102617611
GLOBALSTAR M083 [+]     
1 37739U 11033A   24057.17636414 -.00000105  00000+0 -82099-5 0  9997
2 37739  51.9863  56.7670 0000194 140.6439 298.3996 12.62266011586614
GLOBALSTAR M088 [+]     
1 37740U 11033B   24057.07717549 -.00000071  00000+0  18476-3 0  9994
2 37740  51.9754 322.9647 0000444  54.6614  53.9817 12.62265169582148
GLOBALSTAR M091 [+]     
1 37741U 11033C   24057.10275475 -.00000073  00000+0  17225-3 0  9999
2 37741  51.9991 285.5891 0000525  63.0859 101.7215 12.62271803582935
GLOBALSTAR M085 [+]     
1 37742U 11033D   24057.53623498 -.00000114  00000+0 -57421-4 0  9999
2 37742  51.9841 235.7286 0000645  89.3631 305.6095 12.62268153583506
GLOBALSTAR M081 [+]     
1 37743U 11033E   24057.65078368 -.00000105  00000+0 -48943-5 0  9993
2 37743  51.9931 237.8722 0000704  71.2208   5.0190 12.62270210583662
GLOBALSTAR M089 [+]     
1 37744U 11033F   24057.53251906 -.00000114  00000+0 -56938-4 0  9994
2 37744  51.9916 192.5495 0001045  88.0220 349.8210 12.62254614584493
GLOBALSTAR M084 [+]     
1 38040U 11080A   24057.31354312 -.00000093  00000+0  59971-4 0  9992
2 38040  52.0013  60.2500 0000634  91.5746  10.9004 12.62271371562443
GLOBALSTAR M080 [+]     
1 38041U 11080B   24057.20320163 -.00000097  00000+0  40339-4 0  9990
2 38041  52.0063  62.0259 0000701  76.1555   3.9588 12.62269432562558
GLOBALSTAR M082 [+]     
1 38042U 11080C   24057.31018000 -.00000103  00000+0  30626-5 0  9994
2 38042  52.0100  17.0959 0000337 188.2188 318.6407 12.62266114563270
GLOBALSTAR M092 [+]     
1 38043U 11080D   24057.43306480 -.00000076  00000+0  15694-3 0  9995
2 38043  52.0078 107.0760 0000748 119.4999 345.0214 12.62276817561748
GLOBALSTAR M090 [+]     
1 38044U 11080E   24057.25721925 -.00000093  00000+0  61246-4 0  9995
2 38044  51.9912  11.6791 0000171  99.4374  47.6195 12.62266419563384
GLOBALSTAR M086 [+]     
1 38045U 11080F   24057.28388347 -.00000095  00000+0  46924-4 0  9994
2 38045  51.9923  12.1130 0001033   5.3247 142.2848 12.62267538563338
GLOBALSTAR M097 [+]     
1 39072U 13005A   24057.83205331 -.00000080  00000+0  13192-3 0  9990
2 39072  52.0040 284.5095 0000587  63.3684 296.7242 12.62261130510739
GLOBALSTAR M093 [+]     
1 39073U 13005B   24057.80551412 -.00000087  00000+0  91358-4 0  9990
2 39073  51.9799 278.6550 0000533  55.6355 304.4562 12.62261540510725
GLOBALSTAR M094 [+]     
1 39074U 13005C   24057.56802549 -.00000108  00000+0 -22118-4 0  9997
2 39074  51.9940 193.2806 0000603  98.1648 261.9287 12.62263173512182
GLOBALSTAR M096 [+]     
1 39075U 13005D   24057.81883026 -.00000110  00000+0 -37278-4 0  9991
2 39075  52.0048 240.6613 0000619  76.6194 283.4742 12.62273042511484
GLOBALSTAR M078 [+]     
1 39076U 13005E   24057.00094361 -.00000088  00000+0  86857-4 0  9999
2 39076  51.9895 328.3134 0000766 168.0720 192.0164 12.62261986509652
GLOBALSTAR M095 [+]     
1 39077U 13005F   24057.73952444 -.00000059  00000+0  24881-3 0  9991
2 39077  51.9821 323.4942 0000084 172.0608 188.0259 12.62263777509962
GLOBALSTAR M087 [+]     
1 52888U 22064A   24057.47260296 -.00000114  00000+0  27749-4 0  9998
2 52888  51.9735 237.9231 0010317  81.9991 278.2080 13.37566199 82578
